STARLINK-37987          
1 69749U 26150L   26200.53213254  .00075577  00000+0  50308-3 0  9993
2 69749  97.2830  39.1027 0000451 138.9172 221.2127 15.75191474  4004
STARLINK-38037          
1 69750U 26150M   26200.06041013  .00203229  00000+0  10371-2 0  9997
2 69750  97.2848  38.6752 0001985  76.0288 284.1201 15.80816640  3934
STARLINK-38049          
1 69751U 26150N   26200.50249675  .00184183  00000+0  93966-3 0  9990
2 69751  97.2842  39.1450 0001110 115.4415 244.6969 15.80873888  4008
STARLINK-38029          
1 69752U 26150P   26200.51554753  .00142721  00000+0  94140-3 0  9995
2 69752  97.2847  39.1273 0001124  96.4282 263.7111 15.75200591  4002
STARLINK-37965          
1 69753U 26150Q   26200.52225295  .00133574  00000+0  88219-3 0  9999
2 69753  97.2848  39.1171 0000818  76.9385 283.1971 15.75197657  4005
STARLINK-38048          
1 69754U 26150R   26200.49637593  .00285510  00000+0  14353-2 0  9999
2 69754  97.2837  39.1534 0001445 106.5557 253.5871 15.80933272  4002
STARLINK-38006          
1 69755U 26150S   26200.83071601  .00101109  00000+0  67034-3 0  9996
2 69755  97.2856  39.4639 0001088  77.0525 283.0862 15.75204632  4051
STARLINK-38036          
1 69756U 26150T   26200.83335647  .00047292  00000+0  31726-3 0  9991
2 69756  97.2852  39.4843 0000983  94.1770 318.8900 15.75111732  4047
STARLINK-38058          
1 69757U 26150U   26200.83335647 -.00110969  00000+0 -75166-3 0  9992
2 69757  97.2847  39.5095 0001368  99.7929  11.3004 15.75224913  4043
STARLINK-38066          
1 69758U 26150V   26200.00001157 -.01886094  00000+0 -11660-1 0  9995
2 69758  97.2847  38.6399 0001605  95.0237 347.5572 15.80043025  3903
STARLINK-38035          
1 69759U 26150W   26200.83335647 -.00049880  00000+0 -26092-3 0  9991
2 69759  97.2843  39.5232 0001179  90.8253  52.0299 15.80835869  4048
STARLINK-38056          
1 69760U 26150X   26200.80480454  .00161012  00000+0  82441-3 0  9997
2 69760  97.2842  39.5000 0002440  98.0604 262.0941 15.80854192  4052
STARLINK-38069          
1 69761U 26150Y   26200.83335647 -.00118871  00000+0 -80575-3 0  9997
2 69761  97.2854  39.5242 0000909  89.6616  57.4237 15.75232960  4041
STARLINK-38019          
1 69762U 26150Z   26200.83001028  .00173829  00000+0  11406-2 0  9999
2 69762  97.2840  39.4647 0001173  78.8960 281.2437 15.75233041  4052
KUIPER-00258            
1 69763U 26151A   26200.36875602  .00016196  00000+0  48364-3 0  9993
2 69763  51.8677 160.4478 0011088 185.2272 174.8600 15.34701303  2658
KUIPER-00526            
1 69764U 26151B   26200.86745142  .00010935  00000+0  30371-3 0  9998
2 69764  51.8774 157.8037 0005762 155.3339 204.7925 15.37390833  2739
KUIPER-00558            
1 69765U 26151C   26200.83335647 -.00528659  00000+0 -18413-1 0  9991
2 69765  51.8794 158.1116 0006846 167.1073 290.6555 15.31356703  3336
KUIPER-00569            
1 69766U 26151D   26200.00001157 -.00011214  00000+0 -28959-3 0  9999
2 69766  51.8800 161.9756 0005106 149.5744  96.8948 15.37536026  1697
KUIPER-00589            
1 69767U 26151E   26200.54154909 -.00010968  00000+0 -28457-3 0  9991
2 69767  51.8758 159.3693 0004589 154.1869 205.9347 15.37369502  2684
KUIPER-00598            
1 69768U 26151F   26200.83335647  .00041407  00000+0  12309-2 0  9992
2 69768  51.8647 158.2110 0008690 179.0068 226.1797 15.34313009  3276
KUIPER-00604            
1 69769U 26151G   26200.40218267  .00010473  00000+0  28300-3 0  9992
2 69769  51.8805 159.9344 0002707 118.4354 241.6906 15.38304923  2663
KUIPER-00609            
1 69770U 26151H   26200.85223463  .00013742  00000+0  36318-3 0  9997
2 69770  51.8806 157.7038 0001479  50.8026 309.3092 15.38709271  2733
KUIPER-00611            
1 69771U 26151J   26200.39981719  .00010516  00000+0  28219-3 0  9999
2 69771  51.8807 159.9157 0001692 118.8141 241.3017 15.38514241  2666
KUIPER-00612            
1 69772U 26151K   26200.53544617  .00011540  00000+0  31369-3 0  9996
2 69772  51.8793 159.3297 0003644 120.1060 240.0289 15.38008452  2686
KUIPER-00614            
1 69773U 26151L   26200.59805767  .00010712  00000+0  29007-3 0  9995
2 69773  51.8808 158.9958 0002715 134.2049 225.9162 15.38213806  2698
KUIPER-00615            
1 69774U 26151M   26200.86848574  .00012145  00000+0  33705-3 0  9991
2 69774  51.8786 157.8077 0006329 164.0865 196.0321 15.37300416  2739
KUIPER-00616            
1 69775U 26151N   26200.85592836  .00015363  00000+0  40879-3 0  9993
2 69775  51.8790 157.7299 0002822 137.0731 223.0477 15.38401162  2730
KUIPER-00617            
1 69776U 26151P   26200.86189644  .00013507  00000+0  36708-3 0  9998
2 69776  51.8799 157.7663 0003678 142.5405 217.5839 15.37858972  2738
KUIPER-00619            
1 69777U 26151Q   26200.52858271  .00014464  00000+0  38296-3 0  9998
2 69777  51.8805 159.2805 0001787  80.9272 279.1917 15.38607346  2681
KUIPER-00621            
1 69778U 26151R   26200.59617582 -.00284780  00000+0 -77804-2 0  9993
2 69778  51.8786 158.9891 0003963 181.3547 178.7430 15.37960437  2697
